OBJECT_NAME,OBJECT_ID,EPOCH,MEAN_MOTION,ECCENTRICITY,INCLINATION,RA_OF_ASC_NODE,ARG_OF_PERICENTER,MEAN_ANOMALY,EPHEMERIS_TYPE,CLASSIFICATION_TYPE,NORAD_CAT_ID,ELEMENT_SET_NO,REV_AT_EPOCH,BSTAR,MEAN_MOTION_DOT,MEAN_MOTION_DDOT
TERRA,1999-068A,2016-09-14T05:19:52.681728,14.57131223,.0000972,98.2057,331.2427,104.6418,255.4878,0,U,25994,999,89048,.52888E-5,-.21E-6,0
TERRA,1999-068A,2016-09-14T15:13:10.509888,14.57131452,.0000974,98.2059,331.6487,103.7333,256.3984,0,U,25994,999,89054,.11218E-4,.5E-7,0
TERRA,1999-068A,2016-09-14T21:48:42.365088,14.57131244,.0001001,98.2057,331.9190,102.2103,257.9190,0,U,25994,999,89058,.5235E-5,-.22E-6,0
TERRA,1999-068A,2016-09-15T02:45:21.301632,14.57131708,.0000965,98.2057,332.1219,104.9674,255.1663,0,U,25994,999,89061,.19029E-4,.41E-6,0
TERRA,1999-068A,2016-09-15T04:24:14.217696,14.57131640,.000097,98.2055,332.1896,102.5604,257.5701,0,U,25994,999,89062,.11679E-4,.7E-7,0
TERRA,1999-068A,2016-09-15T06:03:07.188192,14.57131582,.0000984,98.2055,332.2576,104.7764,255.3541,0,U,25994,999,89063,.11857E-4,.8E-7,0
TERRA,1999-068A,2016-09-15T15:56:24.960192,14.57131763,.0000962,98.2056,332.6636,101.8294,258.2997,0,U,25994,999,89069,.15051E-4,.23E-6,0
TERRA,1999-068A,2016-09-16T03:51:49.251744,14.57119362,.0002104,98.2048,333.1543,107.3063,337.3482,0,U,25994,999,89076,.1E-3,.405E-5,0
TERRA,1999-068A,2016-09-16T08:25:15.218112,14.57123021,.0001751,98.2056,333.3404,122.7434,237.3915,0,U,25994,999,89079,-.32144E-3,-.1493E-4,0
TERRA,1999-068A,2016-09-16T18:18:33.260544,14.57121526,.0001743,98.2057,333.7463,123.2328,236.9017,0,U,25994,999,89085,-.33276E-3,-.1544E-4,0
TERRA,1999-068A,2016-09-17T04:11:51.900864,14.57105429,.0001419,98.2047,334.1530,122.3549,237.7565,0,U,25994,999,89091,-.98601E-3,-.4484E-4,0
TERRA,1999-068A,2016-09-17T05:50:45.343104,14.57103558,.0001334,98.2050,334.2205,109.8058,250.3223,0,U,25994,999,89092,-.10587E-2,-.4811E-4,0
TERRA,1999-068A,2016-09-17T17:22:57.042912,14.57099779,.0001399,98.2050,334.6939,109.0644,251.0712,0,U,25994,999,89099,-.10263E-2,-.4665E-4,0
TERRA,1999-068A,2016-09-17T19:01:50.131776,14.57099125,.000141,98.2048,334.7613,109.8546,250.2807,0,U,25994,999,89100,-.10287E-2,-.4675E-4,0
TERRA,1999-068A,2016-09-18T01:37:22.548576,14.57097199,.0001373,98.2048,335.0319,108.3763,251.7624,0,U,25994,999,89104,-.10156E-2,-.4616E-4,0
TERRA,1999-068A,2016-09-18T06:34:01.682112,14.57096362,.0001328,98.2049,335.2352,109.7531,250.3826,0,U,25994,999,89107,-.10172E-2,-.4623E-4,0
TERRA,1999-068A,2016-09-18T18:06:13.466592,14.57094291,.0001548,98.2053,335.7089,109.7442,250.3995,0,U,25994,999,89114,-.92309E-3,-.42E-4,0
TERRA,1999-068A,2016-09-19T03:59:32.075808,14.57101546,.0001106,98.2055,336.1143,88.6411,271.5321,0,U,25994,999,89120,-.47842E-3,-.2199E-4,0
TERRA,1999-068A,2016-09-19T05:38:24.495936,14.57101875,.0001091,98.2051,336.1819,92.4813,267.6530,0,U,25994,999,89121,-.44408E-3,-.2045E-4,0
TERRA,1999-068A,2016-09-19T18:49:29.074656,14.57109224,.0001002,98.2051,336.7244,95.7225,264.4283,0,U,25994,999,89129,.64669E-4,.246E-5,0
TERRA,1999-068A,2016-09-20T03:03:54.391104,14.57106008,.0001389,98.2060,337.0620,76.4017,283.7397,0,U,25994,999,89134,-.11664E-3,-.571E-5,0
TERRA,1999-068A,2016-09-20T04:42:47.124000,14.57109310,.000101,98.2047,337.1296,93.7279,266.4039,0,U,25994,999,89135,.58654E-4,.219E-5,0
TERRA,1999-068A,2016-09-20T04:42:47.362464,14.57109138,.0000989,98.2044,337.1299,92.8707,267.2749,0,U,25994,999,89135,.51597E-4,.187E-5,0
TERRA,1999-068A,2016-09-21T02:08:16.863648,14.57109273,.0000992,98.2050,338.0093,91.0692,269.0591,0,U,25994,999,89148,.46036E-4,.162E-5,0
TERRA,1999-068A,2016-09-21T13:40:28.286112,14.57109933,.0001031,98.2038,338.4823,98.7323,261.4025,0,U,25994,999,89155,.49751E-4,.179E-5,0
TERRA,1999-068A,2016-09-21T13:40:28.306848,14.57109332,.0001,98.2047,338.4826,98.4987,261.6337,0,U,25994,999,89155,.32427E-4,.101E-5,0
TERRA,1999-068A,2016-09-21T15:19:21.289440,14.57109964,.0001031,98.2038,338.5499,98.5193,261.6122,0,U,25994,999,89156,.49751E-4,.179E-5,0
TERRA,1999-068A,2016-09-21T18:37:07.400640,14.57109106,.0001041,98.2031,338.6858,104.9246,255.2039,0,U,25994,999,89158,.15192E-4,.23E-6,0
TERRA,1999-068A,2016-09-21T21:54:53.568000,14.57107929,.0001151,98.2042,338.8214,88.8912,271.2333,0,U,25994,999,89160,-.2346E-4,-.151E-5,0
TERRA,1999-068A,2016-09-22T04:30:25.966656,14.57107612,.0001153,98.2041,339.0918,93.0555,267.0789,0,U,25994,999,89164,-.45985E-4,-.252E-5,0
TERRA,1999-068A,2016-09-22T16:02:37.404672,14.57107261,.0001158,98.2041,339.5653,96.7479,263.3861,0,U,25994,999,89171,-.5884E-4,-.31E-5,0
