TERRA                   
1 25994U 99068A   16258.22213752 -.00000021  00000+0  52888-5 0  9996
2 25994  98.2057 331.2427 0000972 104.6418 255.4878 14.57131223890483
TERRA                   
1 25994U 99068A   16258.63414942  .00000005  00000+0  11218-4 0  9997
2 25994  98.2059 331.6487 0000974 103.7333 256.3984 14.57131452890542
TERRA                   
1 25994U 99068A   16258.90882367 -.00000022  00000+0  52350-5 0  9990
2 25994  98.2057 331.9190 0001001 102.2103 257.9190 14.57131244890584
TERRA                   
1 25994U 99068A   16259.11482988  .00000041  00000+0  19029-4 0  9994
2 25994  98.2057 332.1219 0000965 104.9674 255.1663 14.57131708890613
TERRA                   
1 25994U 99068A   16259.18349789  .00000007  00000+0  11679-4 0  9997
2 25994  98.2055 332.1896 0000970 102.5604 257.5701 14.57131640890620
TERRA                   
1 25994U 99068A   16259.25216653  .00000008  00000+0  11857-4 0  9997
2 25994  98.2055 332.2576 0000984 104.7764 255.3541 14.57131582890636
TERRA                   
1 25994U 99068A   16259.66417778  .00000023  00000+0  15051-4 0  9990
2 25994  98.2056 332.6636 0000962 101.8294 258.2997 14.57131763890694
TERRA                   
1 25994U 99068A   16260.16098671  .00000405  00000+0  10000-3 0  9996
2 25994  98.2048 333.1543 0002104 107.3063 337.3482 14.57119362890760
TERRA                   
1 25994U 99068A   16260.35087058 -.00001493  00000+0 -32144-3 0  9997
2 25994  98.2056 333.3404 0001751 122.7434 237.3915 14.57123021890797
TERRA                   
1 25994U 99068A   16260.76288496 -.00001544  00000+0 -33276-3 0  9995
2 25994  98.2057 333.7463 0001743 123.2328 236.9017 14.57121526890859
TERRA                   
1 25994U 99068A   16261.17490626 -.00004484  00000+0 -98601-3 0  9990
2 25994  98.2047 334.1530 0001419 122.3549 237.7565 14.57105429890911
TERRA                   
1 25994U 99068A   16261.24358036 -.00004811  00000+0 -10587-2 0  9996
2 25994  98.2050 334.2205 0001334 109.8058 250.3223 14.57103558890920
TERRA                   
1 25994U 99068A   16261.72427133 -.00004665  00000+0 -10263-2 0  9992
2 25994  98.2050 334.6939 0001399 109.0644 251.0712 14.57099779890999
TERRA                   
1 25994U 99068A   16261.79294134 -.00004675  00000+0 -10287-2 0  9999
2 25994  98.2048 334.7613 0001410 109.8546 250.2807 14.57099125891003
TERRA                   
1 25994U 99068A   16262.06762209 -.00004616  00000+0 -10156-2 0  9993
2 25994  98.2048 335.0319 0001373 108.3763 251.7624 14.57097199891049
TERRA                   
1 25994U 99068A   16262.27363058 -.00004623  00000+0 -10172-2 0  9991
2 25994  98.2049 335.2352 0001328 109.7531 250.3826 14.57096362891070
TERRA                   
1 25994U 99068A   16262.75432253 -.00004200  00000+0 -92309-3 0  9992
2 25994  98.2053 335.7089 0001548 109.7442 250.3995 14.57094291891146
TERRA                   
1 25994U 99068A   16263.16634347 -.00002199  00000+0 -47842-3 0  9993
2 25994  98.2055 336.1143 0001106  88.6411 271.5321 14.57101546891202
TERRA                   
1 25994U 99068A   16263.23500574 -.00002045  00000+0 -44408-3 0  9990
2 25994  98.2051 336.1819 0001091  92.4813 267.6530 14.57101875891214
TERRA                   
1 25994U 99068A   16263.78436429  .00000246  00000+0  64669-4 0  9998
2 25994  98.2051 336.7244 0001002  95.7225 264.4283 14.57109224891291
TERRA                   
1 25994U 99068A   16264.12771286 -.00000571  00000+0 -11664-3 0  9999
2 25994  98.2060 337.0620 0001389  76.4017 283.7397 14.57106008891349
TERRA                   
1 25994U 99068A   16264.19637875  .00000219  00000+0  58654-4 0  9999
2 25994  98.2047 337.1296 0001010  93.7279 266.4039 14.57109310891358
TERRA                   
1 25994U 99068A   16264.19638151  .00000187  00000+0  51597-4 0  9990
2 25994  98.2044 337.1299 0000989  92.8707 267.2749 14.57109138891353
TERRA                   
1 25994U 99068A   16265.08908407  .00000162  00000+0  46036-4 0  9998
2 25994  98.2050 338.0093 0000992  91.0692 269.0591 14.57109273891489
TERRA                   
1 25994U 99068A   16265.56977183  .00000179  00000+0  49751-4 0  9993
2 25994  98.2038 338.4823 0001031  98.7323 261.4025 14.57109933891559
TERRA                   
1 25994U 99068A   16265.56977207  .00000101  00000+0  32427-4 0  9997
2 25994  98.2047 338.4826 0001000  98.4987 261.6337 14.57109332891552
TERRA                   
1 25994U 99068A   16265.63844085  .00000179  00000+0  49751-4 0  9995
2 25994  98.2038 338.5499 0001031  98.5193 261.6122 14.57109964891567
TERRA                   
1 25994U 99068A   16265.77578010  .00000023  00000+0  15192-4 0  9992
2 25994  98.2031 338.6858 0001041 104.9246 255.2039 14.57109106891588
TERRA                   
1 25994U 99068A   16265.91312000 -.00000151  00000+0 -23460-4 0  9994
2 25994  98.2042 338.8214 0001151  88.8912 271.2333 14.57107929891609
TERRA                   
1 25994U 99068A   16266.18780054 -.00000252  00000+0 -45985-4 0  9990
2 25994  98.2041 339.0918 0001153  93.0555 267.0789 14.57107612891646
TERRA                   
1 25994U 99068A   16266.66848848 -.00000310  00000+0 -58840-4 0  9998
2 25994  98.2041 339.5653 0001158  96.7479 263.3861 14.57107261891715
